
    {
        "ARG_OF_PERICENTER": 272.3634,
        "BSTAR": -2.1587327e-05,
        "CLASSIFICATION_TYPE": "U",
        "ECCENTRICITY": 0.0010745,
        "ELEMENT_SET_NO": 999,
        "EPHEMERIS_TYPE": 0,
        "EPOCH": "2026-05-21T23:48:51.875712",
        "INCLINATION": 98.1344,
        "MEAN_ANOMALY": 87.635,
        "MEAN_MOTION": 14.85917799,
        "MEAN_MOTION_DDOT": 0,
        "MEAN_MOTION_DOT": -2.46e-06,
        "NORAD_CAT_ID": 29709,
        "OBJECT_ID": "2007-001A",
        "OBJECT_NAME": "LAPAN-TUBSAT",
        "RA_OF_ASC_NODE": 140.6274,
        "REV_AT_EPOCH": 4726
    },
    {
        "ARG_OF_PERICENTER": 280.7174,
        "BSTAR": 3.6287067e-05,
        "CLASSIFICATION_TYPE": "U",
        "ECCENTRICITY": 0.0012229,
        "ELEMENT_SET_NO": 999,
        "EPHEMERIS_TYPE": 0,
        "EPOCH": "2026-05-21T22:11:32.669088",
        "INCLINATION": 98.3486,
        "MEAN_ANOMALY": 79.2633,
        "MEAN_MOTION": 14.31019591,
        "MEAN_MOTION_DDOT": 0,
        "MEAN_MOTION_DOT": 5.4e-07,
        "NORAD_CAT_ID": 31113,
        "OBJECT_ID": "2007-010A",
        "OBJECT_NAME": "HAIYANG-1B",
        "RA_OF_ASC_NODE": 124.7904,
        "REV_AT_EPOCH": 99687
    },
    {
        "ARG_OF_PERICENTER": 98.0283,
        "BSTAR": 0.00016357706,
        "CLASSIFICATION_TYPE": "U",
        "ECCENTRICITY": 0.00013927,
        "ELEMENT_SET_NO": 999,
        "EPHEMERIS_TYPE": 0,
        "EPOCH": "2026-05-21T22:24:30.913632",
        "INCLINATION": 97.8856,
        "MEAN_ANOMALY": 262.1096,
        "MEAN_MOTION": 14.96956403,
        "MEAN_MOTION_DDOT": 0,
        "MEAN_MOTION_DOT": 1.82e-05,
        "NORAD_CAT_ID": 31598,
        "OBJECT_ID": "2007-023A",
        "OBJECT_NAME": "COSMO-SKYMED 1",
        "RA_OF_ASC_NODE": 333.571,
        "REV_AT_EPOCH": 2586
    },
    {
        "ARG_OF_PERICENTER": 92.2234,
        "BSTAR": 1.2516191e-05,
        "CLASSIFICATION_TYPE": "U",
        "ECCENTRICITY": 0.00018653,
        "ELEMENT_SET_NO": 999,
        "EPHEMERIS_TYPE": 0,
        "EPOCH": "2026-05-20T11:04:06.028032",
        "INCLINATION": 97.446,
        "MEAN_ANOMALY": 267.9214,
        "MEAN_MOTION": 15.19150954,
        "MEAN_MOTION_DDOT": 0,
        "MEAN_MOTION_DOT": 1.96e-06,
        "NORAD_CAT_ID": 31698,
        "OBJECT_ID": "2007-026A",
        "OBJECT_NAME": "TERRASAR-X",
        "RA_OF_ASC_NODE": 148.5621,
        "REV_AT_EPOCH": 4901
    },
    {
        "ARG_OF_PERICENTER": 128.4385,
        "BSTAR": 0.00017965374,
        "CLASSIFICATION_TYPE": "U",
        "ECCENTRICITY": 0.00038409,
        "ELEMENT_SET_NO": 999,
        "EPHEMERIS_TYPE": 0,
        "EPOCH": "2026-05-21T21:38:14.144640",
        "INCLINATION": 97.3926,
        "MEAN_ANOMALY": 231.7198,
        "MEAN_MOTION": 15.24590017,
        "MEAN_MOTION_DDOT": 0,
        "MEAN_MOTION_DOT": 4.357e-05,
        "NORAD_CAT_ID": 32060,
        "OBJECT_ID": "2007-041A",
        "OBJECT_NAME": "WORLDVIEW-1 (WV-1)",
        "RA_OF_ASC_NODE": 262.0227,
        "REV_AT_EPOCH": 3887
    },
    {
        "ARG_OF_PERICENTER": 96.7661,
        "BSTAR": 0.00010756333,
        "CLASSIFICATION_TYPE": "U",
        "ECCENTRICITY": 0.00016672,
        "ELEMENT_SET_NO": 999,
        "EPHEMERIS_TYPE": 0,
        "EPOCH": "2026-05-21T22:47:14.246016",
        "INCLINATION": 97.8163,
        "MEAN_ANOMALY": 263.3747,
        "MEAN_MOTION": 14.90662855,
        "MEAN_MOTION_DDOT": 0,
        "MEAN_MOTION_DOT": 9.99e-06,
        "NORAD_CAT_ID": 32289,
        "OBJECT_ID": "2007-055A",
        "OBJECT_NAME": "YAOGAN-3",
        "RA_OF_ASC_NODE": 172.0864,
        "REV_AT_EPOCH": 196
    },
    {
        "ARG_OF_PERICENTER": 90.9675,
        "BSTAR": 3.7858416e-05,
        "CLASSIFICATION_TYPE": "U",
        "ECCENTRICITY": 0.00014472,
        "ELEMENT_SET_NO": 999,
        "EPHEMERIS_TYPE": 0,
        "EPOCH": "2026-05-21T23:12:24.059232",
        "INCLINATION": 97.8884,
        "MEAN_ANOMALY": 269.1704,
        "MEAN_MOTION": 14.82161168,
        "MEAN_MOTION_DDOT": 0,
        "MEAN_MOTION_DOT": 2.49e-06,
        "NORAD_CAT_ID": 32376,
        "OBJECT_ID": "2007-059A",
        "OBJECT_NAME": "COSMO-SKYMED 2",
        "RA_OF_ASC_NODE": 325.9457,
        "REV_AT_EPOCH": 99811
    },
    {
        "ARG_OF_PERICENTER": 85.1353,
        "BSTAR": -5.6264213e-05,
        "CLASSIFICATION_TYPE": "U",
        "ECCENTRICITY": 0.00012921,
        "ELEMENT_SET_NO": 999,
        "EPHEMERIS_TYPE": 0,
        "EPOCH": "2026-05-21T22:31:42.168864",
        "INCLINATION": 98.5784,
        "MEAN_ANOMALY": 274.9977,
        "MEAN_MOTION": 14.299813,
        "MEAN_MOTION_DDOT": 0,
        "MEAN_MOTION_DOT": -1.89e-06,
        "NORAD_CAT_ID": 32382,
        "OBJECT_ID": "2007-061A",
        "OBJECT_NAME": "RADARSAT-2",
        "RA_OF_ASC_NODE": 149.2463,
        "REV_AT_EPOCH": 96220
    },
    {
        "ARG_OF_PERICENTER": 189.7502,
        "BSTAR": -1.1590182e-05,
        "CLASSIFICATION_TYPE": "U",
        "ECCENTRICITY": 0.0011356,
        "ELEMENT_SET_NO": 999,
        "EPHEMERIS_TYPE": 0,
        "EPOCH": "2026-05-21T22:27:22.341600",
        "INCLINATION": 97.7645,
        "MEAN_ANOMALY": 170.3491,
        "MEAN_MOTION": 14.79193872,
        "MEAN_MOTION_DDOT": 0,
        "MEAN_MOTION_DOT": -1.36e-06,
        "NORAD_CAT_ID": 32783,
        "OBJECT_ID": "2008-021A",
        "OBJECT_NAME": "CARTOSAT-2A",
        "RA_OF_ASC_NODE": 191.5383,
        "REV_AT_EPOCH": 97492
    },
    {
        "ARG_OF_PERICENTER": 221.3987,
        "BSTAR": 0.00013688115,
        "CLASSIFICATION_TYPE": "U",
        "ECCENTRICITY": 0.00177106,
        "ELEMENT_SET_NO": 999,
        "EPHEMERIS_TYPE": 0,
        "EPOCH": "2026-05-21T22:28:24.511584",
        "INCLINATION": 97.668,
        "MEAN_ANOMALY": 138.5886,
        "MEAN_MOTION": 14.83921247,
        "MEAN_MOTION_DDOT": 0,
        "MEAN_MOTION_DOT": 1.088e-05,
        "NORAD_CAT_ID": 33320,
        "OBJECT_ID": "2008-041A",
        "OBJECT_NAME": "HUANJING 1A (HJ-1A)",
        "RA_OF_ASC_NODE": 128.7937,
        "REV_AT_EPOCH": 95451
    },
    {
        "ARG_OF_PERICENTER": 269.9175,
        "BSTAR": 1.8987253e-05,
        "CLASSIFICATION_TYPE": "U",
        "ECCENTRICITY": 0.00347027,
        "ELEMENT_SET_NO": 999,
        "EPHEMERIS_TYPE": 0,
        "EPOCH": "2026-05-21T23:04:08.075712",
        "INCLINATION": 97.6517,
        "MEAN_ANOMALY": 89.8063,
        "MEAN_MOTION": 14.83264965,
        "MEAN_MOTION_DDOT": 0,
        "MEAN_MOTION_DOT": 1.04e-06,
        "NORAD_CAT_ID": 33321,
        "OBJECT_ID": "2008-041B",
        "OBJECT_NAME": "HUANJING 1B (HJ-1B)",
        "RA_OF_ASC_NODE": 132.0677,
        "REV_AT_EPOCH": 95452
    },
    {
        "ARG_OF_PERICENTER": 133.0838,
        "BSTAR": 6.4634205e-05,
        "CLASSIFICATION_TYPE": "U",
        "ECCENTRICITY": 0.00052006,
        "ELEMENT_SET_NO": 999,
        "EPHEMERIS_TYPE": 0,
        "EPOCH": "2026-05-21T20:25:41.321280",
        "INCLINATION": 98.1239,
        "MEAN_ANOMALY": 227.0801,
        "MEAN_MOTION": 14.64696641,
        "MEAN_MOTION_DDOT": 0,
        "MEAN_MOTION_DOT": 2.96e-06,
        "NORAD_CAT_ID": 33331,
        "OBJECT_ID": "2008-042A",
        "OBJECT_NAME": "GEOEYE 1",
        "RA_OF_ASC_NODE": 216.1155,
        "REV_AT_EPOCH": 94629
    }