LAPAN-TUBSAT            
1 29709U 07001A   26141.99226708 -.00000246  00000+0 -21587-4 0  9992
2 29709  98.1344 140.6274 0010745 272.3634  87.6350 14.85917799 47264
HAIYANG-1B              
1 31113U 07010A   26141.92468367  .00000054  00000+0  36287-4 0  9994
2 31113  98.3486 124.7904 0012229 280.7174  79.2633 14.31019591996874
COSMO-SKYMED 1          
1 31598U 07023A   26141.93369113  .00001820  00000+0  16358-3 0  9993
2 31598  97.8856 333.5710 0001392  98.0283 262.1096 14.96956403 25862
TERRASAR-X              
1 31698U 07026A   26140.46118088  .00000196  00000+0  12516-4 0  9995
2 31698  97.4460 148.5621 0001865  92.2234 267.9214 15.19150954 49013
WORLDVIEW-1 (WV-1)      
1 32060U 07041A   26141.90155260  .00004357  00000+0  17965-3 0  9994
2 32060  97.3926 262.0227 0003840 128.4385 231.7198 15.24590017 38877
YAOGAN-3                
1 32289U 07055A   26141.94947044  .00000999  00000+0  10756-3 0  9994
2 32289  97.8163 172.0864 0001667  96.7661 263.3747 14.90662855  1967
COSMO-SKYMED 2          
1 32376U 07059A   26141.96694513  .00000249  00000+0  37858-4 0  9998
2 32376  97.8884 325.9457 0001447  90.9675 269.1704 14.82161168998119
RADARSAT-2              
1 32382U 07061A   26141.93868251 -.00000189  00000+0 -56264-4 0  9994
2 32382  98.5784 149.2463 0001292  85.1353 274.9977 14.29981300962200
CARTOSAT-2A             
1 32783U 08021A   26141.93567525 -.00000136  00000+0 -11590-4 0  9991
2 32783  97.7645 191.5383 0011356 189.7502 170.3491 14.79193872974928
HUANJING 1A (HJ-1A)     
1 33320U 08041A   26141.93639481  .00001088  00000+0  13688-3 0  9996
2 33320  97.6680 128.7937 0017710 221.3987 138.5886 14.83921247954518
HUANJING 1B (HJ-1B)     
1 33321U 08041B   26141.96120458  .00000104  00000+0  18987-4 0  9995
2 33321  97.6517 132.0677 0034702 269.9175  89.8063 14.83264965954527
GEOEYE 1                
1 33331U 08042A   26141.85117270  .00000296  00000+0  64634-4 0  9995
2 33331  98.1239 216.1155 0005200 133.0838 227.0801 14.64696641946298
